2025-01-02T22:50:42.120960+00:00;ISS;1 25544U 98067A   25002.95187640  .00032954  00000-0  56875-3 0  9996;2 25544  51.6399  45.5951 0006146  39.1211  28.1218 15.50684949489530
2025-01-02T05:32:34.702080+00:00;ISS;1 25544U 98067A   25002.23095720  .00034139  00000-0  58981-3 0  9991;2 25544  51.6378  49.1720 0006118  33.9345 326.2034 15.50638329489427
2025-01-01T20:15:45.204480+00:00;ISS;1 25544U 98067A   25001.84427320  .00056466  00000-0  96818-3 0  9990;2 25544  51.6378  51.0900 0006124  32.3269 327.8094 15.50622792489367
2024-12-31T19:30:49.950432+00:00;ISS;1 25544U 98067A   24366.81307813  .00027763  00000-0  48311-3 0  9997;2 25544  51.6382  56.2039 0006091  28.0496 332.0820 15.50544003489205
2024-12-31T15:18:32.086368+00:00;ISS;1 25544U 98067A   24366.63787137  .00026525  00000-0  46219-3 0  9998;2 25544  51.6405  57.0670 0005932  29.2170  72.2801 15.50533718489175
2024-12-31T13:58:39.514656+00:00;ISS;1 25544U 98067A   24366.58240179  .00026497  00000-0  46176-3 0  9992;2 25544  51.6403  57.3420 0005931  28.9604 122.7049 15.50530575489168
2024-12-31T10:34:08.171904+00:00;ISS;1 25544U 98067A   24366.44037236  .00026433  00000-0  46080-3 0  9999;2 25544  51.6401  58.0461 0005884  28.2226  50.1244 15.50522660489144
2024-12-31T01:15:56.315232+00:00;ISS;1 25544U 98067A   24366.05273513  .00026438  00000-0  46121-3 0  9997;2 25544  51.6404  59.9688 0005860  26.6299  46.5573 15.50502135489086
2024-12-30T16:16:55.987392+00:00;ISS;1 25544U 98067A   24365.67842578  .00026430  00000-0  46140-3 0  9990;2 25544  51.6404  61.8250 0005853  25.4579 117.0387 15.50482079489028
2024-12-30T13:11:59.295840+00:00;ISS;1 25544U 98067A   24365.54999185  .00026343  00000-0  46005-3 0  9996;2 25544  51.6398  62.4600 0005805  24.8141 120.3269 15.50474846489008
2024-12-30T09:28:58.529568+00:00;ISS;1 25544U 98067A   24365.39512187  .00026441  00000-0  46185-3 0  9990;2 25544  51.6381  63.2347 0006000  23.2492 336.8768 15.50465299488983
2024-12-29T21:06:27.382176+00:00;ISS;1 25544U 98067A   24364.87948359  .00026180  00000-0  45783-3 0  9999;2 25544  51.6381  65.7905 0005959  21.2692 338.8543 15.50438769488909
