[
    {
        "OBJECT_NAME": "ISS (ZARYA)",
        "OBJECT_ID": "1998-067A",
        "EPOCH": "2024-12-29T21:06:27.382176",
        "MEAN_MOTION": 15.50438769,
        "ECCENTRICITY": 0.0005959,
        "INCLINATION": 51.6381,
        "RA_OF_ASC_NODE": 65.7905,
        "ARG_OF_PERICENTER": 21.2692,
        "MEAN_ANOMALY": 338.8543,
        "EPHEMERIS_TYPE": 0,
        "CLASSIFICATION_TYPE": "U",
        "NORAD_CAT_ID": 25544,
        "ELEMENT_SET_NO": 999,
        "REV_AT_EPOCH": 48890,
        "BSTAR": 0.00045783,
        "MEAN_MOTION_DOT": 0.0002618,
        "MEAN_MOTION_DDOT": 0,
        "date_fetched": "2024-12-30T02:17:30.129697Z"
    },
    {
        "OBJECT_NAME": "ISS (ZARYA)",
        "OBJECT_ID": "1998-067A",
        "EPOCH": "2024-12-30T09:28:58.529568",
        "MEAN_MOTION": 15.50465299,
        "ECCENTRICITY": 0.0006,
        "INCLINATION": 51.6381,
        "RA_OF_ASC_NODE": 63.2347,
        "ARG_OF_PERICENTER": 23.2492,
        "MEAN_ANOMALY": 336.8768,
        "EPHEMERIS_TYPE": 0,
        "CLASSIFICATION_TYPE": "U",
        "NORAD_CAT_ID": 25544,
        "ELEMENT_SET_NO": 999,
        "REV_AT_EPOCH": 48898,
        "BSTAR": 0.00046185,
        "MEAN_MOTION_DOT": 0.00026441,
        "MEAN_MOTION_DDOT": 0,
        "date_fetched": "2024-12-30T13:21:06.412883Z"
    },
    {
        "OBJECT_NAME": "ISS (ZARYA)",
        "OBJECT_ID": "1998-067A",
        "EPOCH": "2024-12-30T13:11:59.295840",
        "MEAN_MOTION": 15.50474846,
        "ECCENTRICITY": 0.0005805,
        "INCLINATION": 51.6398,
        "RA_OF_ASC_NODE": 62.46,
        "ARG_OF_PERICENTER": 24.8141,
        "MEAN_ANOMALY": 120.3269,
        "EPHEMERIS_TYPE": 0,
        "CLASSIFICATION_TYPE": "U",
        "NORAD_CAT_ID": 25544,
        "ELEMENT_SET_NO": 999,
        "REV_AT_EPOCH": 48900,
        "BSTAR": 0.00046005,
        "MEAN_MOTION_DOT": 0.00026343,
        "MEAN_MOTION_DDOT": 0,
        "date_fetched": "2024-12-30T19:11:38.990119Z"
    },
    {
        "OBJECT_NAME": "ISS (ZARYA)",
        "OBJECT_ID": "1998-067A",
        "EPOCH": "2024-12-30T16:16:55.987392",
        "MEAN_MOTION": 15.50482079,
        "ECCENTRICITY": 0.0005853,
        "INCLINATION": 51.6404,
        "RA_OF_ASC_NODE": 61.825,
        "ARG_OF_PERICENTER": 25.4579,
        "MEAN_ANOMALY": 117.0387,
        "EPHEMERIS_TYPE": 0,
        "CLASSIFICATION_TYPE": "U",
        "NORAD_CAT_ID": 25544,
        "ELEMENT_SET_NO": 999,
        "REV_AT_EPOCH": 48902,
        "BSTAR": 0.0004614,
        "MEAN_MOTION_DOT": 0.0002643,
        "MEAN_MOTION_DDOT": 0,
        "date_fetched": "2024-12-31T02:14:03.608976Z"
    },
    {
        "OBJECT_NAME": "ISS (ZARYA)",
        "OBJECT_ID": "1998-067A",
        "EPOCH": "2024-12-31T01:15:56.315232",
        "MEAN_MOTION": 15.50502135,
        "ECCENTRICITY": 0.000586,
        "INCLINATION": 51.6404,
        "RA_OF_ASC_NODE": 59.9688,
        "ARG_OF_PERICENTER": 26.6299,
        "MEAN_ANOMALY": 46.5573,
        "EPHEMERIS_TYPE": 0,
        "CLASSIFICATION_TYPE": "U",
        "NORAD_CAT_ID": 25544,
        "ELEMENT_SET_NO": 999,
        "REV_AT_EPOCH": 48908,
        "BSTAR": 0.00046121,
        "MEAN_MOTION_DOT": 0.00026438,
        "MEAN_MOTION_DDOT": 0,
        "date_fetched": "2024-12-31T07:13:59.265531Z"
    },
    {
        "OBJECT_NAME": "ISS (ZARYA)",
        "OBJECT_ID": "1998-067A",
        "EPOCH": "2024-12-31T10:34:08.171904",
        "MEAN_MOTION": 15.5052266,
        "ECCENTRICITY": 0.0005884,
        "INCLINATION": 51.6401,
        "RA_OF_ASC_NODE": 58.0461,
        "ARG_OF_PERICENTER": 28.2226,
        "MEAN_ANOMALY": 50.1244,
        "EPHEMERIS_TYPE": 0,
        "CLASSIFICATION_TYPE": "U",
        "NORAD_CAT_ID": 25544,
        "ELEMENT_SET_NO": 999,
        "REV_AT_EPOCH": 48914,
        "BSTAR": 0.0004608,
        "MEAN_MOTION_DOT": 0.00026433,
        "MEAN_MOTION_DDOT": 0,
        "date_fetched": "2024-12-31T13:19:38.588799Z"
    },
    {
        "OBJECT_NAME": "ISS (ZARYA)",
        "OBJECT_ID": "1998-067A",
        "EPOCH": "2024-12-31T13:58:39.514656",
        "MEAN_MOTION": 15.50530575,
        "ECCENTRICITY": 0.0005931,
        "INCLINATION": 51.6403,
        "RA_OF_ASC_NODE": 57.342,
        "ARG_OF_PERICENTER": 28.9604,
        "MEAN_ANOMALY": 122.7049,
        "EPHEMERIS_TYPE": 0,
        "CLASSIFICATION_TYPE": "U",
        "NORAD_CAT_ID": 25544,
        "ELEMENT_SET_NO": 999,
        "REV_AT_EPOCH": 48916,
        "BSTAR": 0.00046176,
        "MEAN_MOTION_DOT": 0.00026497,
        "MEAN_MOTION_DDOT": 0,
        "date_fetched": "2024-12-31T19:11:10.523357Z"
    },
    {
        "OBJECT_NAME": "ISS (ZARYA)",
        "OBJECT_ID": "1998-067A",
        "EPOCH": "2024-12-31T15:18:32.086368",
        "MEAN_MOTION": 15.50533718,
        "ECCENTRICITY": 0.0005932,
        "INCLINATION": 51.6405,
        "RA_OF_ASC_NODE": 57.067,
        "ARG_OF_PERICENTER": 29.217,
        "MEAN_ANOMALY": 72.2801,
        "EPHEMERIS_TYPE": 0,
        "CLASSIFICATION_TYPE": "U",
        "NORAD_CAT_ID": 25544,
        "ELEMENT_SET_NO": 999,
        "REV_AT_EPOCH": 48917,
        "BSTAR": 0.00046219,
        "MEAN_MOTION_DOT": 0.00026525,
        "MEAN_MOTION_DDOT": 0,
        "date_fetched": "2025-01-01T02:22:07.429371Z"
    },
    {
        "OBJECT_NAME": "ISS (ZARYA)",
        "OBJECT_ID": "1998-067A",
        "EPOCH": "2024-12-31T19:30:49.950432",
        "MEAN_MOTION": 15.50544003,
        "ECCENTRICITY": 0.0006091,
        "INCLINATION": 51.6382,
        "RA_OF_ASC_NODE": 56.2039,
        "ARG_OF_PERICENTER": 28.0496,
        "MEAN_ANOMALY": 332.082,
        "EPHEMERIS_TYPE": 0,
        "CLASSIFICATION_TYPE": "U",
        "NORAD_CAT_ID": 25544,
        "ELEMENT_SET_NO": 999,
        "REV_AT_EPOCH": 48920,
        "BSTAR": 0.00048311,
        "MEAN_MOTION_DOT": 0.00027763,
        "MEAN_MOTION_DDOT": 0,
        "date_fetched": "2025-01-01T07:14:31.468966Z"
    },
    {
        "OBJECT_NAME": "ISS (ZARYA)",
        "OBJECT_ID": "1998-067A",
        "EPOCH": "2025-01-01T20:15:45.204480",
        "MEAN_MOTION": 15.50622792,
        "ECCENTRICITY": 0.0006124,
        "INCLINATION": 51.6378,
        "RA_OF_ASC_NODE": 51.09,
        "ARG_OF_PERICENTER": 32.3269,
        "MEAN_ANOMALY": 327.8094,
        "EPHEMERIS_TYPE": 0,
        "CLASSIFICATION_TYPE": "U",
        "NORAD_CAT_ID": 25544,
        "ELEMENT_SET_NO": 999,
        "REV_AT_EPOCH": 48936,
        "BSTAR": 0.00096818,
        "MEAN_MOTION_DOT": 0.00056466,
        "MEAN_MOTION_DDOT": 0,
        "date_fetched": "2025-01-02T02:13:44.137539Z"
    },
    {
        "OBJECT_NAME": "ISS (ZARYA)",
        "OBJECT_ID": "1998-067A",
        "EPOCH": "2025-01-02T05:32:34.702080",
        "MEAN_MOTION": 15.50638329,
        "ECCENTRICITY": 0.0006118,
        "INCLINATION": 51.6378,
        "RA_OF_ASC_NODE": 49.172,
        "ARG_OF_PERICENTER": 33.9345,
        "MEAN_ANOMALY": 326.2034,
        "EPHEMERIS_TYPE": 0,
        "CLASSIFICATION_TYPE": "U",
        "NORAD_CAT_ID": 25544,
        "ELEMENT_SET_NO": 999,
        "REV_AT_EPOCH": 48942,
        "BSTAR": 0.00058981,
        "MEAN_MOTION_DOT": 0.00034139,
        "MEAN_MOTION_DDOT": 0,
        "date_fetched": "2025-01-02T13:20:16.547526Z"
    },
    {
        "OBJECT_NAME": "ISS (ZARYA)",
        "OBJECT_ID": "1998-067A",
        "EPOCH": "2025-01-02T22:50:42.120960",
        "MEAN_MOTION": 15.50684949,
        "ECCENTRICITY": 0.0006146,
        "INCLINATION": 51.6399,
        "RA_OF_ASC_NODE": 45.5951,
        "ARG_OF_PERICENTER": 39.1211,
        "MEAN_ANOMALY": 28.1218,
        "EPHEMERIS_TYPE": 0,
        "CLASSIFICATION_TYPE": "U",
        "NORAD_CAT_ID": 25544,
        "ELEMENT_SET_NO": 999,
        "REV_AT_EPOCH": 48953,
        "BSTAR": 0.00056875,
        "MEAN_MOTION_DOT": 0.00032954,
        "MEAN_MOTION_DDOT": 0,
        "date_fetched": "2025-01-03T02:15:25.200076Z"
    }
]